CCSDS_OMM_VERS,COMMENT,CREATION_DATE,ORIGINATOR,OBJECT_NAME,OBJECT_ID,CENTER_NAME,REF_FRAME,TIME_SYSTEM,MEAN_ELEMENT_THEORY,EPOCH,MEAN_MOTION,ECCENTRICITY,INCLINATION,RA_OF_ASC_NODE,ARG_OF_PERICENTER,MEAN_ANOMALY,EPHEMERIS_TYPE,CLASSIFICATION_TYPE,NORAD_CAT_ID,ELEMENT_SET_NO,REV_AT_EPOCH,BSTAR,MEAN_MOTION_DOT,MEAN_MOTION_DDOT,SEMIMAJOR_AXIS,PERIOD,APOAPSIS,PERIAPSIS,OBJECT_TYPE,RCS_SIZE,COUNTRY_CODE,LAUNCH_DATE,SITE,DECAY_DATE,FILE,GP_ID,TLE_LINE0,TLE_LINE1,TLE_LINE2
"2.0","GENERATED VIA SPACE-TRACK.ORG API","2009-01-14T07:36:34","18 SPCS","IRIDIUM 33","1997-051C","EARTH","TEME","UTC","SGP4","2009-01-14T09:53:13.537535","14.34214826","0.00021510","86.4003","132.7098","81.4804","278.6635","0","U","24946","999","59355","-0.00010091000000","-0.00000263","0.0000000000000","7155.818","100.403","779.222","776.144","PAYLOAD","LARGE","US","1997-09-14","TTMTR","","658905","69488477","0 IRIDIUM 33","1 24946U 97051C   09014.41196224 -.00000263  00000-0 -10091-3 0  9997","2 24946 086.4003 132.7098 0002151 081.4804 278.6635 14.34214826593551"
"2.0","GENERATED VIA SPACE-TRACK.ORG API","2009-01-15T09:02:01","18 SPCS","COSMOS 2251","1993-036A","EARTH","TEME","UTC","SGP4","2009-01-14T15:13:29.386560","14.31134503","0.00166820","74.0360","66.5734","153.3429","206.8591","0","U","22675","999","81371","0.00001923000000","0.00000025","0.0000000000000","7166.082","100.619","799.902","775.993","PAYLOAD","LARGE","CIS","1993-06-16","PKMTR","","659369","69506587","0 COSMOS 2251","1 22675U 93036A   09014.63436790 +.00000025 +00000-0 +19230-4 0  9991","2 22675 074.0360 066.5734 0016682 153.3429 206.8591 14.31134503813711"
"2.0","GENERATED VIA SPACE-TRACK.ORG API","2009-01-15T09:02:01","18 SPCS","IRIDIUM 33","1997-051C","EARTH","TEME","UTC","SGP4","2009-01-14T19:56:01.636800","14.34214008","0.00021180","86.4004","132.5350","79.6766","280.4656","0","U","24946","999","59361","-0.00014469000000","-0.00000385","0.0000000000000","7155.821","100.403","779.201","776.170","PAYLOAD","LARGE","US","1997-09-14","TTMTR","","659369","69506945","0 IRIDIUM 33","1 24946U 97051C   09014.83057450 -.00000385 +00000-0 -14469-3 0  9998","2 24946 086.4004 132.5350 0002118 079.6766 280.4656 14.34214008593613"
"2.0","GENERATED VIA SPACE-TRACK.ORG API","2009-01-15T06:34:34","18 SPCS","IRIDIUM 33","1997-051C","EARTH","TEME","UTC","SGP4","2009-01-15T09:19:45.854688","14.34212480","0.00021800","86.4006","132.3024","83.9286","276.2149","0","U","24946","999","59369","-0.00021678000000","-0.00000587","0.0000000000000","7155.826","100.403","779.251","776.131","PAYLOAD","LARGE","US","1997-09-14","TTMTR","","659332","69502069","0 IRIDIUM 33","1 24946U 97051C   09015.38872517 -.00000587  00000-0 -21678-3 0  9992","2 24946 086.4006 132.3024 0002180 083.9286 276.2149 14.34212480593695"
"2.0","GENERATED VIA SPACE-TRACK.ORG API","2009-01-15T15:12:18","18 SPCS","COSMOS 2251","1993-036A","EARTH","TEME","UTC","SGP4","2009-01-15T16:23:23.253792","14.31134593","0.00166330","74.0358","64.6633","151.1954","209.0112","0","U","22675","999","81386","0.00001862400000","0.00000023","0.0000000000000","7166.082","100.619","799.866","776.028","PAYLOAD","LARGE","CIS","1993-06-16","PKMTR","","659524","69510348","0 COSMOS 2251","1 22675U 93036A   09015.68290803  .00000023  00000-0  18624-4 0  9994","2 22675 074.0358 064.6633 0016633 151.1954 209.0112 14.31134593813869"
"2.0","GENERATED VIA SPACE-TRACK.ORG API","2009-01-16T07:46:02","18 SPCS","IRIDIUM 33","1997-051C","EARTH","TEME","UTC","SGP4","2009-01-15T21:03:02.016287","14.34212015","0.00021990","86.4006","132.0985","83.3825","276.7620","0","U","24946","999","59376","-0.00020720000000","-0.00000560","0.0000000000000","7155.827","100.403","779.266","776.119","PAYLOAD","LARGE","US","1997-09-14","TTMTR","","659770","69519643","0 IRIDIUM 33","1 24946U 97051C   09015.87710667 -.00000560 +00000-0 -20720-3 0  9991","2 24946 086.4006 132.0985 0002199 083.3825 276.7620 14.34212015593762"
"2.0","GENERATED VIA SPACE-TRACK.ORG API","2009-01-16T08:02:30","18 SPCS","IRIDIUM 33","1997-051C","EARTH","TEME","UTC","SGP4","2009-01-16T08:46:18.145920","14.34211854","0.00021710","86.4005","131.8949","82.3055","277.8386","0","U","24946","999","59383","-0.00017592000000","-0.00000473","0.0000000000000","7155.828","100.403","779.246","776.139","PAYLOAD","LARGE","US","1997-09-14","TTMTR","","659850","69523612","0 IRIDIUM 33","1 24946U 97051C   09016.36548780 -.00000473  00000-0 -17592-3 0  9997","2 24946 086.4005 131.8949 0002171 082.3055 277.8386 14.34211854593831"
"2.0","GENERATED VIA SPACE-TRACK.ORG API","2009-01-17T08:13:48","18 SPCS","COSMOS 2251","1993-036A","EARTH","TEME","UTC","SGP4","2009-01-16T14:11:57.969888","14.31134651","0.00166050","74.0358","63.0083","149.3185","210.8935","0","U","22675","999","81399","0.00001878900000","0.00000024","0.0000000000000","7166.082","100.619","799.846","776.047","PAYLOAD","LARGE","CIS","1993-06-16","PKMTR","","660208","69533206","0 COSMOS 2251","1 22675U 93036A   09016.59164317 +.00000024 +00000-0 +18789-4 0  9998","2 22675 074.0358 063.0083 0016605 149.3185 210.8935 14.31134651813997"
"2.0","GENERATED VIA SPACE-TRACK.ORG API","2009-01-17T08:13:48","18 SPCS","IRIDIUM 33","1997-051C","EARTH","TEME","UTC","SGP4","2009-01-16T20:29:34.290240","14.34211689","0.00022140","86.4003","131.6907","82.9926","277.1517","0","U","24946","999","59390","-0.00015233000000","-0.00000407","0.0000000000000","7155.828","100.403","779.278","776.109","PAYLOAD","LARGE","US","1997-09-14","TTMTR","","660208","69533555","0 IRIDIUM 33","1 24946U 97051C   09016.85386910 -.00000407 +00000-0 -15233-3 0  9993","2 24946 086.4003 131.6907 0002214 082.9926 277.1517 14.34211689593905"
"2.0","GENERATED VIA SPACE-TRACK.ORG API","2009-01-16T22:36:58","18 SPCS","COSMOS 2251","1993-036A","EARTH","TEME","UTC","SGP4","2009-01-17T01:56:35.122848","14.31134762","0.00166020","74.0358","62.1172","148.3112","211.9046","0","U","22675","999","81406","0.00002107400000","0.00000030","0.0000000000000","7166.081","100.619","799.843","776.049","PAYLOAD","LARGE","CIS","1993-06-16","PKMTR","","660065","69525879","0 COSMOS 2251","1 22675U 93036A   09017.08096207  .00000030  00000-0  21074-4 0  9993","2 22675 074.0358 062.1172 0016602 148.3112 211.9046 14.31134762814069"
"2.0","GENERATED VIA SPACE-TRACK.ORG API","2009-01-17T06:32:42","18 SPCS","IRIDIUM 33","1997-051C","EARTH","TEME","UTC","SGP4","2009-01-17T09:53:18.439871","14.34211879","0.00021630","86.4001","131.4579","81.1625","278.9815","0","U","24946","999","59398","-0.00010417000000","-0.00000272","0.0000000000000","7155.828","100.403","779.241","776.145","PAYLOAD","LARGE","US","1997-09-14","TTMTR","","660160","69528030","0 IRIDIUM 33","1 24946U 97051C   09017.41201898 -.00000272  00000-0 -10417-3 0  9996","2 24946 086.4001 131.4579 0002163 081.1625 278.9815 14.34211879593985"
"2.0","GENERATED VIA SPACE-TRACK.ORG API","2009-01-17T07:06:33","18 SPCS","IRIDIUM 33","1997-051C","EARTH","TEME","UTC","SGP4","2009-01-17T09:53:18.439871","14.34211879","0.00021630","86.4001","131.4579","81.1625","278.9815","0","U","24946","999","59398","-0.00010417000000","-0.00000272","0.0000000000000","7155.828","100.403","779.241","776.145","PAYLOAD","LARGE","US","1997-09-14","TTMTR","","660195","69528825","0 IRIDIUM 33","1 24946U 97051C   09017.41201898 -.00000272  00000-0 -10417-3 0  9996","2 24946 086.4001 131.4579 0002163 081.1625 278.9815 14.34211879593985"
"2.0","GENERATED VIA SPACE-TRACK.ORG API","2009-01-18T07:24:15","18 SPCS","COSMOS 2251","1993-036A","EARTH","TEME","UTC","SGP4","2009-01-17T15:21:51.854399","14.31134836","0.00165910","74.0358","61.0987","147.1689","213.0496","0","U","22675","999","81414","0.00002310200000","0.00000035","0.0000000000000","7166.081","100.619","799.835","776.057","PAYLOAD","LARGE","CIS","1993-06-16","PKMTR","","660508","69545598","0 COSMOS 2251","1 22675U 93036A   09017.64018350 +.00000035 +00000-0 +23102-4 0  9997","2 22675 074.0358 061.0987 0016591 147.1689 213.0496 14.31134836814147"
"2.0","GENERATED VIA SPACE-TRACK.ORG API","2009-01-18T07:24:15","18 SPCS","IRIDIUM 33","1997-051C","EARTH","TEME","UTC","SGP4","2009-01-17T19:56:06.537408","14.34212264","0.00022380","86.4000","131.2829","82.8676","277.2774","0","U","24946","999","59404","-0.00005491800000","-0.00000134","0.0000000000000","7155.826","100.403","779.293","776.090","PAYLOAD","LARGE","US","1997-09-14","TTMTR","","660508","69545963","0 IRIDIUM 33","1 24946U 97051C   09017.83063122 -.00000134 +00000-0 -54918-4 0  9990","2 24946 086.4000 131.2829 0002238 082.8676 277.2774 14.34212264594040"
"2.0","GENERATED VIA SPACE-TRACK.ORG API","2009-01-17T22:33:24","18 SPCS","COSMOS 2251","1993-036A","EARTH","TEME","UTC","SGP4","2009-01-18T03:06:28.993536","14.31134887","0.00165820","74.0358","60.2078","146.1326","214.0886","0","U","22675","999","81421","0.00002234400000","0.00000033","0.0000000000000","7166.081","100.619","799.829","776.063","PAYLOAD","LARGE","CIS","1993-06-16","PKMTR","","660440","69539571","0 COSMOS 2251","1 22675U 93036A   09018.12950224  .00000033  00000-0  22344-4 0  9991","2 22675 074.0358 060.2078 0016582 146.1326 214.0886 14.31134887814214"
"2.0","GENERATED VIA SPACE-TRACK.ORG API","2009-01-18T08:20:34","18 SPCS","IRIDIUM 33","1997-051C","EARTH","TEME","UTC","SGP4","2009-01-18T09:19:50.673216","14.34212566","0.00022020","86.3999","131.0500","81.5430","278.6014","0","U","24946","999","59412","-0.00001991000000","-0.00000036","0.0000000000000","7155.825","100.403","779.266","776.115","PAYLOAD","LARGE","US","1997-09-14","TTMTR","","660641","69550953","0 IRIDIUM 33","1 24946U 97051C   09018.38878094 -.00000036  00000-0 -19910-4 0  9997","2 24946 086.3999 131.0500 0002202 081.5430 278.6014 14.34212566594121"
